CSS (TIANHE)            
1 48274U 21035A   24223.06697273  .00056564  00000+0  67919-3 0  9999
2 48274  41.4681 114.6676 0001280 247.9235 112.1468 15.60003502187523
